GLOBALSTAR M035         
1 25851U 99037A   25197.63029576 -.00000062  00000+0  63460-4 0  9992
2 25851  51.9982 349.3053 0013863  32.4839  51.2481 11.04539044 99510
GLOBALSTAR M032         
1 25852U 99037B   25197.36219375 -.00000045  00000+0  71038-3 0  9991
2 25852  51.9919 173.0866 0012081 216.3520 143.6460 11.19062192138053
GLOBALSTAR M051         
1 25853U 99037C   25197.63396544 -.00000074  00000+0 -51692-4 0  9994
2 25853  51.9824 329.8568 0000305 182.5680 177.5129 11.42204562135753
GLOBALSTAR M030         
1 25854U 99037D   25197.50577508 -.00000027  00000+0  10122-2 0  9990
2 25854  51.9866 134.4061 0003292  90.6629 269.4565 11.55109493153439
GLOBALSTAR M048         
1 25872U 99041A   25197.58205339 -.00000062  00000+0  20296-3 0  9996
2 25872  51.9363 266.1544 0013643 234.4895 274.5444 11.33858068128311
GLOBALSTAR M026         
1 25873U 99041B   25197.52756273  .00000044  00000+0  39632-2 0  9991
2 25873  52.0013 107.1848 0002162 337.6490 193.2305 11.06844665151731
GLOBALSTAR M043         
1 25874U 99041C   25197.57368950 -.00000097  00000+0 -86281-3 0  9991
2 25874  51.9425  14.9863 0013417   5.4852  71.5339 11.25694450126188
GLOBALSTAR M028         
1 25875U 99041D   25197.48528919 -.00000101  00000+0 -62773-7 0  9995
2 25875  51.9624 105.7027 0063383 134.5113 226.0951 12.50584315193843
